{
    "links": {
        "self": "http://www.neowsapp.com/rest/v1/neo/3443215?api_key=iIulBulltgU6a56xZRHN4H3l9WmuAYTsLGpBGhQ2"
    },
    "id": "3443215",
    "neo_reference_id": "3443215",
    "name": "(2008 YF30)",
    "designation": "2008 YF30",
    "nasa_jpl_url": "http://ssd.jpl.nasa.gov/sbdb.cgi?sstr=3443215",
    "absolute_magnitude_h": 24.5,
    "estimated_diameter": {
        "kilometers": {
            "estimated_diameter_min": 0.0334622374,
            "estimated_diameter_max": 0.0748238376
        },
        "meters": {
            "estimated_diameter_min": 33.4622374455,
            "estimated_diameter_max": 74.8238376074
        },
        "miles": {
            "estimated_diameter_min": 0.0207924639,
            "estimated_diameter_max": 0.0464933628
        },
        "feet": {
            "estimated_diameter_min": 109.7842471007,
            "estimated_diameter_max": 245.4850393757
        }
    },
    "is_potentially_hazardous_asteroid": false,
    "close_approach_data": [
        {
            "close_approach_date": "2009-01-12",
            "close_approach_date_full": "2009-Jan-12 12:13",
            "epoch_date_close_approach": 1231762380000,
            "relative_velocity": {
                "kilometers_per_second": "8.3030754458",
                "kilometers_per_hour": "29891.0716047321",
                "miles_per_hour": "18573.1494646181"
            },
            "miss_distance": {
                "astronomical": "0.0700230345",
                "lunar": "27.2389604205",
                "kilometers": "10475296.812136515",
                "miles": "6509047.610513307"
            },
            "orbiting_body": "Earth"
        },
        {
            "close_approach_date": "2009-06-18",
            "close_approach_date_full": "2009-Jun-18 00:15",
            "epoch_date_close_approach": 1245284100000,
            "relative_velocity": {
                "kilometers_per_second": "6.7751402478",
                "kilometers_per_hour": "24390.5048920013",
                "miles_per_hour": "15155.3112202549"
            },
            "miss_distance": {
                "astronomical": "0.367364866",
                "lunar": "142.904932874",
                "kilometers": "54957001.46643542",
                "miles": "34148697.215111996"
            },
            "orbiting_body": "Earth"
        },
        {
            "close_approach_date": "2164-01-11",
            "close_approach_date_full": "2164-Jan-11 04:22",
            "epoch_date_close_approach": 6122924520000,
            "relative_velocity": {
                "kilometers_per_second": "9.5883128557",
                "kilometers_per_hour": "34517.9262806959",
                "miles_per_hour": "21448.0970270246"
            },
            "miss_distance": {
                "astronomical": "0.0531875125",
                "lunar": "20.6899423625",
                "kilometers": "7956738.580598375",
                "miles": "4944088.093572575"
            },
            "orbiting_body": "Earth"
        }
    ],
    "orbital_data": {
        "orbit_id": "8",
        "orbit_determination_date": "2017-04-06 09:01:46",
        "first_observation_date": "2008-12-31",
        "last_observation_date": "2009-01-02",
        "data_arc_in_days": 2,
        "observations_used": 18,
        "orbit_uncertainty": "9",
        "minimum_orbit_intersection": ".0497942",
        "jupiter_tisserand_invariant": "4.908",
        "epoch_osculation": "2454832.5",
        "eccentricity": ".3226587535371242",
        "semi_major_axis": "1.30969600676199",
        "inclination": "10.00747929705081",
        "ascending_node_longitude": "275.0940257321955",
        "orbital_period": "547.4622549624015",
        "perihelion_distance": ".8871111257076175",
        "perihelion_argument": "253.9834628346111",
        "aphelion_distance": "1.732280887816363",
        "perihelion_time": "2454891.860224059327",
        "mean_anomaly": "320.9659287601017",
        "mean_motion": ".657579580577156",
        "equinox": "J2000",
        "orbit_class": {
            "orbit_class_type": "APO",
            "orbit_class_description": "Near-Earth asteroid orbits which cross the Earth’s orbit similar to that of 1862 Apollo",
            "orbit_class_range": "a (semi-major axis) > 1.0 AU; q (perihelion) < 1.017 AU"
        }
    },
    "is_sentry_object": false
}